C/2018 Y1 (Iwamoto),e,160.4030,147.4965,358.0519,144.2787,0.0005687,0.99108313,0.0000,02/07.0344/2019,2000,g 11.5,4.0
# From MPC114605
P/2018 Y2 (Africano),e,11.6826,297.2662,162.4424,7.469532,0.0482796,0.47886199,20.7491,03/07.0/2020,2000,g 11.5,4.0
# From MPC114605
P/2019 A1 (PANSTARRS),e,13.7442,312.3008,150.8318,5.126467,0.0849135,0.56855208,43.5659,03/07.0/2020,2000,g 16.0,4.0
# From MPC114605
P/2019 A2 (ATLAS),e,14.8592,139.4627,324.1713,5.727831,0.0718983,0.38154456,33.9285,03/07.0/2020,2000,g 10.5,4.0
# From MPC114605
P/2019 A3 (PANSTARRS),e,15.3647,31.3205,325.4791,3.147525,0.1765022,0.26520853,102.9198,03/07.0/2020,2000,g 16.0,4.0
# From MPC114605
P/2019 A4 (PANSTARRS),e,13.3206,119.3005,341.6141,2.612768,0.2333741,0.08933132,107.0304,03/07.0/2020,2000,g 15.0,4.0
# From MPC118842
C/2019 A5 (PANSTARRS),e,67.5479,146.6207,356.0243,21.62922,0.0097981,0.70761777,2.6626,03/07.0/2020,2000,g  9.5,4.0
# From MPC114605
P/2019 A6 (Lemmon-PANSTARRS),e,33.2292,280.2739,156.2616,5.367071,0.0792680,0.63893438,44.0571,03/07.0/2020,2000,g 16.0,4.0
# From MPC114605
P/2019 A7 (PANSTARRS),e,17.7743,280.5244,119.3514,3.186539,0.1732707,0.16087400,136.8159,03/07.0/2020,2000,g 13.5,4.0
# From MPC115884
P/2019 A8 (PANSTARRS),e,2.9778,127.7940,21.8039,3.364114,0.1597343,0.44111102,87.9377,03/07.0/2020,2000,g 16.0,4.0
# From MPC118842
C/2019 A9 (PANSTARRS),e,84.3417,278.3683,237.8250,38.98712,0.0040488,0.96340413,0.9087,03/07.0/2020,2000,g 15.0,4.0
# From MPC114606
C/2019 B1 (Africano),e,123.3634,290.4355,174.8698,150.9703,0.0005313,0.98942185,0.0000,03/19.8967/2019,2000,g 16.0,4.0
# From MPC115885
P/2019 B2 (Groeller),e,16.8271,176.4488,358.7818,3.854273,0.1302538,0.37294584,35.5290,03/07.0/2020,2000,g 14.5,4.0
# From MPC115885
C/2019 B3 (PANSTARRS),h,01/19.5993/2021,66.5345,358.4171,263.8791,1.002916,6.824002,2000,5.5,4.0
# From MPEC 2020-AA5
A/2019 C1,e,36.0157,212.3985,319.1905,847.2680,0.0000400,0.99223244,0.0000,05/05.7420/2020,2000,g 10.0,4.0
# From MPC118842
C/2019 D1 (Flewelling),e,34.0959,231.7195,70.4886,138.8677,0.0006023,0.98863816,0.0000,05/11.8565/2019,2000,g 13.0,4.0
# From MPC119997
C/2019 E3 (ATLAS),h,11/11.6907/2023,84.2781,347.2215,280.5869,1.004902,10.316076,2000,2.5,4.0
# From MPC119997
C/2019 F1 (ATLAS-Africano),h,06/22.7664/2021,54.1741,38.7259,251.1018,1.003323,3.596391,2000,5.5,4.0
# From MPC119997
C/2019 F2 (ATLAS),e,19.1876,175.8616,10.9759,16.58189,0.0145966,0.86533364,2.6283,03/07.0/2020,2000,g 12.0,4.0
# From MPEC 2020-AA5
A/2019 G2,e,159.2115,208.1458,82.6526,720.3933,0.0000510,0.99681931,0.0000,12/10.0583/2019,2000,g 16.5,2.0
# From MPC118094
A/2019 G4,h,09/15.7451/2018,138.3824,130.4663,287.8774,1.000636,5.858736,2000,13.0,2.0
# From MPC114607
P/2019 GG21 (PANSTARRS),e,6.0838,340.6011,208.3433,7.465394,0.0483198,0.47286029,14.5883,03/07.0/2020,2000,g 12.0,4.0
# From MPC115885
C/2019 H1 (NEOWISE),e,104.5790,269.1858,19.2874,226.7547,0.0002886,0.99186352,0.0000,04/27.7361/2019,2000,g 15.5,4.0
# From MPC118842
C/2019 J1 (Lemmon),e,24.5506,98.0882,167.7757,70.22776,0.0016747,0.96470736,0.5572,03/07.0/2020,2000,g 12.0,4.0
# From MPC115885
C/2019 J2 (Palomar),e,105.1350,25.4712,98.7077,695.1546,0.0000538,0.99751569,0.0000,07/19.7245/2019,2000,g 13.0,4.0
# From MPC117071
C/2019 J3 (ATLAS),e,131.4138,270.5176,16.5478,27953,0.0000002,0.99991509,0.0000,08/01.8693/2019,2000,g 13.5,4.0
# From MPC117071
C/2019 JU6 (ATLAS),e,148.2929,21.7365,94.8694,329.5632,0.0001647,0.99379514,0.0000,05/31.8644/2019,2000,g 14.5,4.0
# From MPC119997
C/2019 K1 (ATLAS),e,87.1496,73.3749,265.7061,10464,0.0000009,0.99980767,0.0000,02/12.9618/2020,2000,g 10.0,4.0
# From MPC119997
C/2019 K4 (Ye),e,105.3037,180.1652,139.7745,2049,0.0000106,0.99889712,0.0000,06/16.4135/2019,2000,g 12.5,4.0
# From MPC119997
C/2019 K5 (Young),e,15.3147,177.1838,174.9277,153.2918,0.0005193,0.98672384,0.0000,06/22.7720/2019,2000,g 13.0,4.0
# From MPC117071
A/2019 K6,e,132.3743,42.9398,187.6072,1537,0.0000164,0.99744367,0.0000,05/20.1252/2020,2000,g 13.6,2.0
# From MPC118095
C/2019 K7 (Smith),h,06/16.8448/2020,103.5147,307.9185,27.2836,1.002117,4.474966,2000,6.2,4.0
# From MPC119997
C/2019 K8 (ATLAS),e,93.2226,291.0450,85.3621,1644,0.0000148,0.99805698,0.0000,07/21.2669/2019,2000,g 11.5,4.0
# From MPC118095
C/2019 L1 (PANSTARRS),e,9.9934,254.4076,49.9275,9.833150,0.0319643,0.70606516,6.6711,03/07.0/2020,2000,g 13.5,4.0
# From MPC115886
C/2019 L2 (NEOWISE),e,152.1819,12.5789,18.7507,24.96353,0.0079021,0.93510873,2.6872,03/07.0/2020,2000,g 16.0,4.0
# From MPC119997
C/2019 L3 (ATLAS),h,01/09.9089/2022,48.3664,290.7853,171.6709,1.000370,3.552856,2000,4.5,4.0
# From MPC118095
C/2019 LB7 (Kleyna),e,164.2363,3.3069,335.9525,35.23869,0.0047117,0.92951604,1.6287,03/07.0/2020,2000,g 17.0,4.0
# From MPC118843
P/2019 M2 (ATLAS),e,12.2818,307.6007,332.5326,3.025591,0.1872789,0.64847767,48.3804,03/07.0/2020,2000,g 21.2,4.0
# From MPC118095
C/2019 M3 (ATLAS),h,01/03.0205/2019,99.4402,154.8956,87.9426,1.002000,2.418259,2000,12.2,4.0
# From MPC119997
C/2019 N1 (ATLAS),e,82.4244,13.5776,193.4437,18278,0.0000004,0.99990674,0.0000,12/01.7926/2020,2000,g  7.5,4.0
# From MPEC 2020-AA5
A/2019 O2,e,93.2864,48.3415,129.6499,57.52476,0.0022590,0.83168144,357.4558,03/07.0/2020,2000,g  9.5,2.0
# From MPC118843
A/2019 O3,h,03/07.2104/2021,89.8137,300.3802,60.0095,1.001408,8.819254,2000,10.0,2.0
# From MPC117072
A/2019 O4,e,115.0852,354.9194,61.8065,32.87916,0.0052278,0.88915644,0.1363,03/07.0/2020,2000,g 15.5,2.0
# From MPEC 2020-AA5
A/2019 Q1,h,07/19.7317/2020,155.7202,42.3371,55.9252,1.000502,4.996733,2000,12.5,2.0
# From MPC117072
A/2019 Q2,e,159.0265,187.9866,176.2913,58.27964,0.0022153,0.97841964,0.0000,07/22.3790/2019,2000,g 18.0,2.0
# From MPC117072
C/2019 Q3 (PANSTARRS),h,08/20.9530/2018,65.5317,151.3252,152.6390,1.004597,7.250783,2000,8.5,4.0
# From MPC117072
P/2019 S2 (PANSTARRS),e,10.4732,93.1265,216.7378,4.734247,0.0956814,0.20678366,36.3775,03/07.0/2020,2000,g 13.5,4.0
# From MPC118096
P/2019 S3 (PANSTARRS),e,8.6925,150.1669,212.9640,3.413879,0.1562543,0.47073987,30.2945,03/07.0/2020,2000,g 18.3,4.0
# From MPEC 2020-AA5
A/2019 S4,e,92.0238,63.1681,71.3563,239.9393,0.0002652,0.98565618,0.0000,04/07.9471/2020,2000,g 14.5,2.0
# From MPC118843
A/2019 T1,e,120.8683,6.9491,90.9948,38.21033,0.0041729,0.88793411,358.6936,03/07.0/2020,2000,g 13.0,2.0
# From MPEC 2020-AA5
A/2019 T2,e,111.4653,155.6392,239.3943,1879,0.0000121,0.99859216,0.0000,04/22.3275/2021,2000,g 12.5,2.0
# From MPC119998
C/2019 T3 (ATLAS),e,121.8623,139.5133,112.2526,11888,0.0000008,0.99949979,0.0000,03/02.4199/2021,2000,g  6.8,4.0
# From MPC119998
C/2019 T4 (ATLAS),e,53.6165,199.9804,351.2043,1052,0.0000289,0.99596619,0.0000,06/09.3106/2022,2000,g  5.0,4.0
# From MPC119998
P/2019 T5 (ATLAS),e,33.4226,247.6964,189.6176,8.016763,0.0434216,0.80928882,9.5032,03/07.0/2020,2000,g 15.0,4.0
# From MPC119998
P/2019 T6 (PANSTARRS),e,18.6966,71.3110,328.9100,5.432896,0.0778318,0.62231534,9.3583,03/07.0/2020,2000,g 15.5,4.0
# From MPC118096
P/2019 U4 (PANSTARRS),e,11.6907,200.0369,180.9583,3.520056,0.1492381,0.47528093,25.4668,03/07.0/2020,2000,g 19.0,4.0
# From MPC118844
A/2019 U5,h,03/30.5210/2023,113.5281,2.7049,181.6210,1.000315,3.621226,2000,10.0,2.0
# From MPEC 2020-AA5
A/2019 U6,e,61.0017,235.7064,329.6579,437.2698,0.0001078,0.99790913,0.0000,06/18.8216/2020,2000,g 14.5,2.0
# From MPC119998
C/2019 V1 (Borisov),e,61.8643,83.2063,51.2002,2630,0.0000073,0.99882213,0.0000,07/16.5756/2020,2000,g 11.0,4.0
# From MPC119998
P/2019 V2 (Groeller),e,11.8021,189.1708,336.3601,7.519470,0.0477995,0.33286549,349.0065,03/07.0/2020,2000,g 10.0,4.0
# From MPC119998
P/2019 W1 (PANSTARRS),e,23.4604,35.4203,18.7371,4.550623,0.1015308,0.26610045,30.8735,03/07.0/2020,2000,g 12.9,4.0
# From MPC119998
P/2019 X1 (Pruyne),e,10.2450,43.7191,36.6420,6.177847,0.0641872,0.30339341,14.8172,03/07.0/2020,2000,g 10.4,4.0
# From MPC119999
C/2019 Y1 (ATLAS),e,73.2513,31.5194,57.9773,86.87801,0.0012171,0.99042820,0.0000,03/15.5989/2020,2000,g 13.7,4.0
# From MPC119999
P/2019 Y2 (Fuls),e,4.9020,81.0805,91.7208,3.528803,0.1486836,0.39618030,5.4090,03/07.0/2020,2000,g 13.2,4.0
# From MPEC 2020-C98
P/2019 Y3 (Catalina),e,24.6352,139.3822,2.2690,2.997920,0.1898777,0.69578450,16.0522,03/07.0/2020,2000,g 18.5,4.0
# From MPEC 2020-C98
C/2019 Y4 (ATLAS),e,45.3906,120.5781,177.3986,312.1571,0.0001787,0.99918955,0.0000,05/31.0443/2020,2000,g 12.0,4.0
# From MPEC 2020-C98
A/2019 Y5,e,82.8368,51.7763,303.4993,777.1047,0.0000455,0.99367597,0.0000,08/18.1483/2019,2000,g 14.0,2.0
# From MPEC 2020-C98
A/2020 A1,e,149.0018,119.3250,302.3674,21.87653,0.0096324,0.92378412,0.9240,03/07.0/2020,2000,g 18.0,2.0
# From MPEC 2020-C98
C/2020 A2 (Iwamoto),h,01/08.3488/2020,120.7476,286.3719,68.2358,1.000212,0.978285,2000,13.5,4.0
# From MPEC 2020-C98
C/2020 A3 (ATLAS),h,07/29.4208/2019,146.7763,120.3792,271.1534,1.024135,5.839273,2000,8.0,4.0
# From MPEC 2020-C98
A/2020 B1,e,18.5139,310.0335,154.7940,52.40485,0.0025980,0.96664849,0.1872,03/07.0/2020,2000,g 21.0,2.0
# From MPC xxxxx
C/2020 B2 (Lemmon),e,55.5297,354.4464,142.7560,60.30094,0.0021048,0.95418231,0.0914,03/07.0/2020,2000,g 14.5,4.0
# From MPC xxxxx
C/2020 B3 (Rankin),e,20.7568,185.7960,325.9241,218.5352,0.0003051,0.98464529,0.0000,10/22.8738/2019,2000,g 11.5,4.0
# From  98, 1083
1P/Halley,e,162.3143,58.1896,111.1274,17.86905,0.0130482,0.96626688,162.6879,03/07.0/2020,2000,g  4.0,6.0
# From MPC118097
2P/Encke,e,11.7647,334.5531,186.5623,2.215243,0.2989317,0.84800328,326.8649,03/07.0/2020,2000,g 11.5,6.0
# From MPEC 2015-A10
4P/Faye,e,8.0168,193.3984,206.7414,3.823409,0.1318342,0.57864254,287.3721,03/07.0/2020,2000,g  8.0,6.0
# From MPEC 2015-S97
6P/d'Arrest,e,19.5101,138.9295,178.0777,3.498456,0.1506223,0.61248460,275.6782,03/07.0/2020,2000,g  9.0,4.0
# From MPEC 2015-E14
7P/Pons-Winnecke,e,22.3646,93.3807,172.5581,3.415791,0.1561231,0.63854339,290.3584,03/07.0/2020,2000,g  9.0,4.0
# From MPC 75715
8P/Tuttle,e,54.9123,270.2067,207.4961,5.700863,0.0724091,0.81998069,320.9820,03/07.0/2020,2000,g  9.0,4.0
